ONEWEB-0369             
1 49295U 21090S   26197.52306541  .00000051  00000+0  94420-4 0  9990
2 49295  87.9187 299.1320 0002028 103.8211 256.3147 13.19726639230285
ONEWEB-0370             
1 49296U 21090T   26197.64181235  .00000002  00000+0 -25887-4 0  9993
2 49296  87.9184 268.5710 0002321  94.1976 265.9422 13.20772205233751
ONEWEB-0371             
1 49297U 21090U   26197.53096291  .00000120  00000+0  26783-3 0  9994
2 49297  87.9193 299.1250 0002131 101.3932 258.7441 13.19725560230324
ONEWEB-0372             
1 49298U 21090V   26197.63156470  .00000051  00000+0  93282-4 0  9994
2 49298  87.9183 268.5750 0002094  98.7409 261.3961 13.20769271233728
ONEWEB-0373             
1 49299U 21090W   26197.65695034 -.00000083  00000+0 -23646-3 0  9994
2 49299  87.9185 268.5695 0002077  96.1041 264.0329 13.20773056234910
ONEWEB-0374             
1 49300U 21090X   26197.65242626 -.00000213  00000+0 -60914-3 0  9996
2 49300  87.8970 283.8276 0001550  88.8674 271.2633 13.14502514231438
ONEWEB-0375             
1 49301U 21090Y   26197.64516899 -.00000079  00000+0 -22509-3 0  9990
2 49301  87.9186 268.5639 0001641  87.4314 272.7007 13.20772981234415
ONEWEB-0376             
1 49302U 21090Z   26197.68100782  .00000007  00000+0 -16071-4 0  9993
2 49302  87.9194 299.0951 0002099 105.8191 254.3173 13.19726783230342
ONEWEB-0377             
1 49303U 21090AA  26197.63181256  .00002343  00000+0  57282-2 0  9995
2 49303  87.9185 268.5688 0002034  94.1350 266.0016 13.20793146234403
ONEWEB-0378             
1 49304U 21090AB  26197.65205648 -.00000024  00000+0 -90470-4 0  9994
2 49304  87.9179 268.5685 0001906  97.5331 262.6019 13.20772185233670
ONEWEB-0379             
1 49305U 21090AC  26197.64767538 -.00000188  00000+0 -54247-3 0  9997
2 49305  87.8969 283.8388 0001916  99.0718 261.0629 13.14502421231433
ONEWEB-0380             
1 49306U 21090AD  26197.67785941 -.00000050  00000+0 -15833-3 0  9995
2 49306  87.9187 299.0991 0001976  94.7388 265.3971 13.19726701230314
ONEWEB-0381             
1 49307U 21090AE  26197.62832542 -.00000163  00000+0 -43183-3 0  9995
2 49307  87.9184 268.5742 0001846  94.4966 265.6378 13.20770751233719
ONEWEB-0382             
1 49308U 21090AF  26197.61488035  .00000064  00000+0  12565-3 0  9997
2 49308  87.9184 268.5707 0001794  97.1965 262.9372 13.20771841233706
ONEWEB-0383             
1 49309U 21090AG  26197.64133293 -.00000127  00000+0 -37817-3 0  9993
2 49309  87.8975 283.8324 0001887 101.1916 258.9426 13.14502233231460
ONEWEB-0384             
1 49310U 21090AH  26197.60258775  .00000030  00000+0  42858-4 0  9997
2 49310  87.9185 268.6172 0001632 100.2176 259.9141 13.20813881233710
ONEWEB-0385             
1 49311U 21090AJ  26197.60813583  .00000087  00000+0  18319-3 0  9998
2 49311  87.9184 268.5777 0001926  96.6240 263.5113 13.20769286233681
ONEWEB-0386             
1 49312U 21090AK  26197.62495970  .00000066  00000+0  13125-3 0  9994
2 49312  87.9187 268.5663 0001826  98.8489 261.2851 13.20773350233701
ONEWEB-0387             
1 49313U 21090AL  26197.60981787  .00000067  00000+0  13237-3 0  9994
2 49313  87.9174 268.5874 0001971  87.4499 272.6860 13.20769754233707
ONEWEB-0388             
1 49314U 21090AM  26197.29403385  .00000105  00000+0  22982-3 0  9993
2 49314  87.9185 299.1733 0001868  99.7350 260.3994 13.19727211230250
ONEWEB-0389             
1 50469U 21132A   26197.51006617  .00000009  00000+0 -90720-5 0  9996
2 50469  87.9145   0.0344 0001705  83.0121 277.1205 13.17650514221944
ONEWEB-0390             
1 50470U 21132B   26197.51175338  .00000006  00000+0 -16755-4 0  9997
2 50470  87.9145   0.0350 0002079  91.0814 269.0556 13.17650405221944
ONEWEB-0391             
1 50471U 21132C   26197.51344103  .00000015  00000+0  42826-5 0  9994
2 50471  87.9146   0.0446 0001987  68.3624 291.7719 13.17650369221947
ONEWEB-0392             
1 50472U 21132D   26197.46788330  .00000004  00000+0 -24097-4 0  9991
2 50472  87.9156   0.0239 0001747  82.0976 278.0354 13.17651039221977
ONEWEB-0393             
1 50473U 21132E   26197.44342653  .00000141  00000+0  32889-3 0  9992
2 50473  87.9144   0.0439 0001791  88.6262 271.5075 13.17647731221967
ONEWEB-0394             
1 50474U 21132F   26197.38644017  .00000105  00000+0  23244-3 0  9990
2 50474  87.9196 329.6361 0001746  97.1861 262.9470 13.18685120225444
ONEWEB-0395             
1 50475U 21132G   26197.54129529  .00000025  00000+0  34665-4 0  9996
2 50475  87.8885  15.2210 0002006  84.5120 275.6237 13.11419795219562
ONEWEB-0396             
1 50476U 21132H   26197.83496054 -.00000020  00000+0 -82493-4 0  9998
2 50476  87.9198 329.5602 0001748  96.9167 263.2164 13.18686338225540
ONEWEB-0397             
1 50477U 21132J   26197.39487205  .00000058  00000+0  11423-3 0  9991
2 50477  87.9197 329.6473 0001658  99.0611 261.0709 13.18686643225466
ONEWEB-0398             
1 50478U 21132K   26197.50908438 -.00000208  00000+0 -62281-3 0  9998
2 50478  87.8890  15.2203 0002167  88.6036 271.5341 13.11415309219458
ONEWEB-0399             
1 50479U 21132L   26197.57182766  .00000351  00000+0  95390-3 0  9998
2 50479  87.8893  15.2191 0001512  78.0887 282.0411 13.11415348219456
