OBJECT_NAME,OBJECT_ID,EPOCH,MEAN_MOTION,ECCENTRICITY,INCLINATION,RA_OF_ASC_NODE,ARG_OF_PERICENTER,MEAN_ANOMALY,EPHEMERIS_TYPE,CLASSIFICATION_TYPE,NORAD_CAT_ID,ELEMENT_SET_NO,REV_AT_EPOCH,BSTAR,MEAN_MOTION_DOT,MEAN_MOTION_DDOT
ONEWEB-0369,2021-090S,2026-07-16T12:33:12.851424,13.19726639,.0002028,87.9187,299.1320,103.8211,256.3147,0,U,49295,999,23028,.9442E-4,.51E-6,0
ONEWEB-0370,2021-090T,2026-07-16T15:24:12.587040,13.20772205,.0002321,87.9184,268.5710,94.1976,265.9422,0,U,49296,999,23375,-.25887E-4,.2E-7,0
ONEWEB-0371,2021-090U,2026-07-16T12:44:35.195424,13.19725560,.0002131,87.9193,299.1250,101.3932,258.7441,0,U,49297,999,23032,.26783E-3,.12E-5,0
ONEWEB-0372,2021-090V,2026-07-16T15:09:27.190080,13.20769271,.0002094,87.9183,268.5750,98.7409,261.3961,0,U,49298,999,23372,.93282E-4,.51E-6,0
ONEWEB-0373,2021-090W,2026-07-16T15:46:00.509376,13.20773056,.0002077,87.9185,268.5695,96.1041,264.0329,0,U,49299,999,23491,-.23646E-3,-.83E-6,0
ONEWEB-0374,2021-090X,2026-07-16T15:39:29.628864,13.14502514,.000155,87.8970,283.8276,88.8674,271.2633,0,U,49300,999,23143,-.60914E-3,-.213E-5,0
ONEWEB-0375,2021-090Y,2026-07-16T15:29:02.600736,13.20772981,.0001641,87.9186,268.5639,87.4314,272.7007,0,U,49301,999,23441,-.22509E-3,-.79E-6,0
ONEWEB-0376,2021-090Z,2026-07-16T16:20:39.075648,13.19726783,.0002099,87.9194,299.0951,105.8191,254.3173,0,U,49302,999,23034,-.16071E-4,.7E-7,0
ONEWEB-0377,2021-090AA,2026-07-16T15:09:48.605184,13.20793146,.0002034,87.9185,268.5688,94.1350,266.0016,0,U,49303,999,23440,.57282E-2,.2343E-4,0
ONEWEB-0378,2021-090AB,2026-07-16T15:38:57.679872,13.20772185,.0001906,87.9179,268.5685,97.5331,262.6019,0,U,49304,999,23367,-.9047E-4,-.24E-6,0
ONEWEB-0379,2021-090AC,2026-07-16T15:32:39.152832,13.14502421,.0001916,87.8969,283.8388,99.0718,261.0629,0,U,49305,999,23143,-.54247E-3,-.188E-5,0
ONEWEB-0380,2021-090AD,2026-07-16T16:16:07.053024,13.19726701,.0001976,87.9187,299.0991,94.7388,265.3971,0,U,49306,999,23031,-.15833E-3,-.5E-6,0
ONEWEB-0381,2021-090AE,2026-07-16T15:04:47.316288,13.20770751,.0001846,87.9184,268.5742,94.4966,265.6378,0,U,49307,999,23371,-.43183E-3,-.163E-5,0
ONEWEB-0382,2021-090AF,2026-07-16T14:45:25.662240,13.20771841,.0001794,87.9184,268.5707,97.1965,262.9372,0,U,49308,999,23370,.12565E-3,.64E-6,0
ONEWEB-0383,2021-090AG,2026-07-16T15:23:31.165152,13.14502233,.0001887,87.8975,283.8324,101.1916,258.9426,0,U,49309,999,23146,-.37817E-3,-.127E-5,0
ONEWEB-0384,2021-090AH,2026-07-16T14:27:43.581600,13.20813881,.0001632,87.9185,268.6172,100.2176,259.9141,0,U,49310,999,23371,.42858E-4,.3E-6,0
ONEWEB-0385,2021-090AJ,2026-07-16T14:35:42.935712,13.20769286,.0001926,87.9184,268.5777,96.6240,263.5113,0,U,49311,999,23368,.18319E-3,.87E-6,0
ONEWEB-0386,2021-090AK,2026-07-16T14:59:56.518080,13.20773350,.0001826,87.9187,268.5663,98.8489,261.2851,0,U,49312,999,23370,.13125E-3,.66E-6,0
ONEWEB-0387,2021-090AL,2026-07-16T14:38:08.263968,13.20769754,.0001971,87.9174,268.5874,87.4499,272.6860,0,U,49313,999,23370,.13237E-3,.67E-6,0
ONEWEB-0388,2021-090AM,2026-07-16T07:03:24.524640,13.19727211,.0001868,87.9185,299.1733,99.7350,260.3994,0,U,49314,999,23025,.22982E-3,.105E-5,0
ONEWEB-0389,2021-132A,2026-07-16T12:14:29.717088,13.17650514,.0001705,87.9145,0.0344,83.0121,277.1205,0,U,50469,999,22194,-.9072E-5,.9E-7,0
ONEWEB-0390,2021-132B,2026-07-16T12:16:55.492032,13.17650405,.0002079,87.9145,0.0350,91.0814,269.0556,0,U,50470,999,22194,-.16755E-4,.6E-7,0
ONEWEB-0391,2021-132C,2026-07-16T12:19:21.304992,13.17650369,.0001987,87.9146,0.0446,68.3624,291.7719,0,U,50471,999,22194,.42826E-5,.15E-6,0
ONEWEB-0392,2021-132D,2026-07-16T11:13:45.117120,13.17651039,.0001747,87.9156,0.0239,82.0976,278.0354,0,U,50472,999,22197,-.24097E-4,.4E-7,0
ONEWEB-0393,2021-132E,2026-07-16T10:38:32.052192,13.17647731,.0001791,87.9144,0.0439,88.6262,271.5075,0,U,50473,999,22196,.32889E-3,.141E-5,0
ONEWEB-0394,2021-132F,2026-07-16T09:16:28.430688,13.18685120,.0001746,87.9196,329.6361,97.1861,262.9470,0,U,50474,999,22544,.23244E-3,.105E-5,0
ONEWEB-0395,2021-132G,2026-07-16T12:59:27.913056,13.11419795,.0002006,87.8885,15.2210,84.5120,275.6237,0,U,50475,999,21956,.34665E-4,.25E-6,0
ONEWEB-0396,2021-132H,2026-07-16T20:02:20.590656,13.18686338,.0001748,87.9198,329.5602,96.9167,263.2164,0,U,50476,999,22554,-.82493E-4,-.2E-6,0
ONEWEB-0397,2021-132J,2026-07-16T09:28:36.945120,13.18686643,.0001658,87.9197,329.6473,99.0611,261.0709,0,U,50477,999,22546,.11423E-3,.58E-6,0
ONEWEB-0398,2021-132K,2026-07-16T12:13:04.890432,13.11415309,.0002167,87.8890,15.2203,88.6036,271.5341,0,U,50478,999,21945,-.62281E-3,-.208E-5,0
ONEWEB-0399,2021-132L,2026-07-16T13:43:25.909824,13.11415348,.0001512,87.8893,15.2191,78.0887,282.0411,0,U,50479,999,21945,.9539E-3,.351E-5,0
